{
    "week": 295,
    "satellites": [
        {
            "Name": "BEIDOU-2 IGSO-1 (C06)",
            "Line1": "1 36828U 10036A   24337.46716588 -.00000030  00000+0  00000+0 0  9993",
            "Line2": "2 36828  54.2588 168.0402 0042848 205.5568 333.4755  1.00282202 52597",
            "SatelliteNumber": "36828",
            "Classification": "U",
            "LaunchYear": "10",
            "LaunchNumber": "036",
            "PieceOfLaunch": "A",
            "EpochYear": "24",
            "EpochDay": 337.46716588,
            "FirstDerivativeMeanMotion": -3e-07,
            "SecondDerivativeMeanMotion": "00000+0",
            "BSTAR": "00000+0",
            "SetNumber": "999",
            "Inclination": 54.2588,
            "RAAN": 168.0402,
            "Eccentricity": 0.0042848,
            "ArgumentOfPerigee": 205.5568,
            "MeanAnomaly": 333.4755,
            "MeanMotion": 1.00282202,
            "RevolutionNumber": "5259"
        },
        {
            "Name": "BEIDOU-2 G4 (C04)",
            "Line1": "1 37210U 10057A   24337.51987421 -.00000086  00000+0  00000+0 0  9995",
            "Line2": "2 37210   2.2536  70.1533 0009337 181.7119 167.1686  1.00272451 51656",
            "SatelliteNumber": "37210",
            "Classification": "U",
            "LaunchYear": "10",
            "LaunchNumber": "057",
            "PieceOfLaunch": "A",
            "EpochYear": "24",
            "EpochDay": 337.51987421,
            "FirstDerivativeMeanMotion": -8.6e-07,
            "SecondDerivativeMeanMotion": "00000+0",
            "BSTAR": "00000+0",
            "SetNumber": "999",
            "Inclination": 2.2536,
            "RAAN": 70.1533,
            "Eccentricity": 0.0009337,
            "ArgumentOfPerigee": 181.7119,
            "MeanAnomaly": 167.1686,
            "MeanMotion": 1.00272451,
            "RevolutionNumber": "5165"
        },
        {
            "Name": "BEIDOU-2 IGSO-2 (C07)",
            "Line1": "1 37256U 10068A   24334.73967046 -.00000205  00000+0  00000+0 0  9992",
            "Line2": "2 37256  48.5771 278.7994 0037686 218.6719 302.5714  1.00250110 51139",
            "SatelliteNumber": "37256",
            "Classification": "U",
            "LaunchYear": "10",
            "LaunchNumber": "068",
            "PieceOfLaunch": "A",
            "EpochYear": "24",
            "EpochDay": 334.73967046,
            "FirstDerivativeMeanMotion": -2.05e-06,
            "SecondDerivativeMeanMotion": "00000+0",
            "BSTAR": "00000+0",
            "SetNumber": "999",
            "Inclination": 48.5771,
            "RAAN": 278.7994,
            "Eccentricity": 0.0037686,
            "ArgumentOfPerigee": 218.6719,
            "MeanAnomaly": 302.5714,
            "MeanMotion": 1.0025011,
            "RevolutionNumber": "5113"
        },
        {
            "Name": "BEIDOU-2 IGSO-3 (C08)",
            "Line1": "1 37384U 11013A   24336.68080645 -.00000185  00000+0  00000+0 0  9999",
            "Line2": "2 37384  61.5974  45.5034 0031685 181.7828 196.1059  1.00266956 50021",
            "SatelliteNumber": "37384",
            "Classification": "U",
            "LaunchYear": "11",
            "LaunchNumber": "013",
            "PieceOfLaunch": "A",
            "EpochYear": "24",
            "EpochDay": 336.68080645,
            "FirstDerivativeMeanMotion": -1.85e-06,
            "SecondDerivativeMeanMotion": "00000+0",
            "BSTAR": "00000+0",
            "SetNumber": "999",
            "Inclination": 61.5974,
            "RAAN": 45.5034,
            "Eccentricity": 0.0031685,
            "ArgumentOfPerigee": 181.7828,
            "MeanAnomaly": 196.1059,
            "MeanMotion": 1.00266956,
            "RevolutionNumber": "5002"
        },
        {
            "Name": "BEIDOU-2 IGSO-4 (C09)",
            "Line1": "1 37763U 11038A   24337.46692490  .00000080  00000+0  00000+0 0  9994",
            "Line2": "2 37763  54.5640 170.6900 0129940 228.4329 297.1310  1.00272726 49014",
            "SatelliteNumber": "37763",
            "Classification": "U",
            "LaunchYear": "11",
            "LaunchNumber": "038",
            "PieceOfLaunch": "A",
            "EpochYear": "24",
            "EpochDay": 337.4669249,
            "FirstDerivativeMeanMotion": 8e-07,
            "SecondDerivativeMeanMotion": "00000+0",
            "BSTAR": "00000+0",
            "SetNumber": "999",
            "Inclination": 54.564,
            "RAAN": 170.69,
            "Eccentricity": 0.012994,
            "ArgumentOfPerigee": 228.4329,
            "MeanAnomaly": 297.131,
            "MeanMotion": 1.00272726,
            "RevolutionNumber": "4901"
        },
        {
            "Name": "BEIDOU-2 IGSO-5 (C10)",
            "Line1": "1 37948U 11073A   24336.82093021 -.00000163  00000+0  00000+0 0  9995",
            "Line2": "2 37948  48.7100 278.4714 0103447 221.0798 320.4277  1.00278706 47494",
            "SatelliteNumber": "37948",
            "Classification": "U",
            "LaunchYear": "11",
            "LaunchNumber": "073",
            "PieceOfLaunch": "A",
            "EpochYear": "24",
            "EpochDay": 336.82093021,
            "FirstDerivativeMeanMotion": -1.63e-06,
            "SecondDerivativeMeanMotion": "00000+0",
            "BSTAR": "00000+0",
            "SetNumber": "999",
            "Inclination": 48.71,
            "RAAN": 278.4714,
            "Eccentricity": 0.0103447,
            "ArgumentOfPerigee": 221.0798,
            "MeanAnomaly": 320.4277,
            "MeanMotion": 1.00278706,
            "RevolutionNumber": "4749"
        },
        {
            "Name": "BEIDOU-2 G5 (C05)",
            "Line1": "1 38091U 12008A   24337.52902486  .00000083  00000+0  00000+0 0  9996",
            "Line2": "2 38091   2.1739  70.9575 0011323 224.8257  25.2404  1.00270654 46730",
            "SatelliteNumber": "38091",
            "Classification": "U",
            "LaunchYear": "12",
            "LaunchNumber": "008",
            "PieceOfLaunch": "A",
            "EpochYear": "24",
            "EpochDay": 337.52902486,
            "FirstDerivativeMeanMotion": 8.3e-07,
            "SecondDerivativeMeanMotion": "00000+0",
            "BSTAR": "00000+0",
            "SetNumber": "999",
            "Inclination": 2.1739,
            "RAAN": 70.9575,
            "Eccentricity": 0.0011323,
            "ArgumentOfPerigee": 224.8257,
            "MeanAnomaly": 25.2404,
            "MeanMotion": 1.00270654,
            "RevolutionNumber": "4673"
        },
        {
            "Name": "BEIDOU-2 M3 (C11)",
            "Line1": "1 38250U 12018A   24336.46175876 -.00000061  00000+0  00000+0 0  9998",
            "Line2": "2 38250  56.2208 323.7651 0025400 267.7428  91.9682  1.86233648 85466",
            "SatelliteNumber": "38250",
            "Classification": "U",
            "LaunchYear": "12",
            "LaunchNumber": "018",
            "PieceOfLaunch": "A",
            "EpochYear": "24",
            "EpochDay": 336.46175876,
            "FirstDerivativeMeanMotion": -6.1e-07,
            "SecondDerivativeMeanMotion": "00000+0",
            "BSTAR": "00000+0",
            "SetNumber": "999",
            "Inclination": 56.2208,
            "RAAN": 323.7651,
            "Eccentricity": 0.00254,
            "ArgumentOfPerigee": 267.7428,
            "MeanAnomaly": 91.9682,
            "MeanMotion": 1.86233648,
            "RevolutionNumber": "8546"
        },
        {
            "Name": "BEIDOU-2 M4 (C12)",
            "Line1": "1 38251U 12018B   24337.46620044 -.00000056  00000+0  00000+0 0  9996",
            "Line2": "2 38251  56.1252 322.9903 0016300 270.5564  89.2571  1.86232067 85830",
            "SatelliteNumber": "38251",
            "Classification": "U",
            "LaunchYear": "12",
            "LaunchNumber": "018",
            "PieceOfLaunch": "B",
            "EpochYear": "24",
            "EpochDay": 337.46620044,
            "FirstDerivativeMeanMotion": -5.6e-07,
            "SecondDerivativeMeanMotion": "00000+0",
            "BSTAR": "00000+0",
            "SetNumber": "999",
            "Inclination": 56.1252,
            "RAAN": 322.9903,
            "Eccentricity": 0.00163,
            "ArgumentOfPerigee": 270.5564,
            "MeanAnomaly": 89.2571,
            "MeanMotion": 1.86232067,
            "RevolutionNumber": "8583"
        },
        {
            "Name": "BEIDOU-2 M6 (C14)",
            "Line1": "1 38775U 12050B   24336.63893357 -.00000024  00000+0  00000+0 0  9995",
            "Line2": "2 38775  56.0524  81.5738 0010799 340.1073  19.8377  1.86230975 82837",
            "SatelliteNumber": "38775",
            "Classification": "U",
            "LaunchYear": "12",
            "LaunchNumber": "050",
            "PieceOfLaunch": "B",
            "EpochYear": "24",
            "EpochDay": 336.63893357,
            "FirstDerivativeMeanMotion": -2.4e-07,
            "SecondDerivativeMeanMotion": "00000+0",
            "BSTAR": "00000+0",
            "SetNumber": "999",
            "Inclination": 56.0524,
            "RAAN": 81.5738,
            "Eccentricity": 0.0010799,
            "ArgumentOfPerigee": 340.1073,
            "MeanAnomaly": 19.8377,
            "MeanMotion": 1.86230975,
            "RevolutionNumber": "8283"
        }
    ]
}